ONEWEB-0113             
1 48050U 21025J   21339.92346527  .00000297  00000+0  77717-3 0  9992
2 48050  87.8960 288.8844 0002065  77.5598 282.5762 13.13471023 36425
ONEWEB-0112             
1 48051U 21025K   21339.91224589  .00000016  00000+0  78744-5 0  9997
2 48051  87.8849 288.9084 0001938  77.4959 282.6386 13.13472999 36434
ONEWEB-0156             
1 48052U 21025L   21339.92122065  .00000313  00000+0  82240-3 0  9999
2 48052  87.8964 288.8524 0001847  78.8974 281.2363 13.13468412 36415
ONEWEB-0161             
1 48053U 21025M   21339.89432361 -.00000231  00000+0 -66854-3 0  9993
2 48053  87.8898 288.9015 0001860  74.1244 286.0090 13.13471293 36345
ONEWEB-0158             
1 48054U 21025N   21339.93465486  .00000322  00000+0  84564-3 0  9990
2 48054  87.8958 288.8795 0002201  79.5557 280.5819 13.13471068 36475
ONEWEB-0157             
1 48055U 21025P   21339.95705327 -.00000169  00000+0 -49800-3 0  9999
2 48055  87.8933 288.8766 0001400  75.4254 284.7031 13.13466999 36419
ONEWEB-0162             
1 48056U 21025Q   21339.91897573  .00000166  00000+0  41827-3 0  9997
2 48056  87.8877 288.8800 0001772  83.5383 276.5948 13.13469217 36389
ONEWEB-0155             
1 48057U 21025R   21339.94140552  .00000257  00000+0  66973-3 0  9999
2 48057  87.8916 288.8799 0001959  72.4422 287.6921 13.13466939 36527
ONEWEB-0149             
1 48058U 21025S   21339.88537133 -.00000304  00000+0 -86759-3 0  9997
2 48058  87.8954 288.8581 0001664 100.7860 259.3456 13.13466820 36329
ONEWEB-0148             
1 48059U 21025T   21339.92569845  .00000277  00000+0  72409-3 0  9992
2 48059  87.8923 288.8673 0001116 107.2632 252.8620 13.13471546 36455
ONEWEB-0160             
1 48060U 21025U   21339.94364069  .00000106  00000+0  25530-3 0  9991
2 48060  87.8906 288.8875 0003204  83.0452 277.1041 13.13466764 36401
ONEWEB-0163             
1 48061U 21025V   21339.24308248 -.00097480  00000+0 -27273+0 0  9997
2 48061  87.8971 289.0251 0002338 346.8015  13.3052 13.12729535 36439
ONEWEB-0159             
1 48062U 21025W   21339.91664626  .00000010  00000+0 -65001-5 0  9996
2 48062  87.8948 288.8134 0001042  79.7659 280.3587 13.13467811 36445
ONEWEB-0164             
1 48063U 21025X   21339.89881340 -.00000187  00000+0 -54673-3 0  9995
2 48063  87.8980 288.8960 0002074  69.9497 290.1856 13.13470848 36426
ONEWEB-0167             
1 48064U 21025Y   21339.93016719  .00000362  00000+0  95759-3 0  9994
2 48064  87.8934 288.8785 0001360  76.1553 283.9727 13.13472717 36414
ONEWEB-0166             
1 48065U 21025Z   21339.87416943 -.00000047  00000+0 -16448-3 0  9991
2 48065  87.8848 288.9242 0001615  75.2615 284.8693 13.13468483 36484
ONEWEB-0151             
1 48066U 21025AA  21339.87641081 -.00000113  00000+0 -34501-3 0  9999
2 48066  87.8947 288.8833 0002082  67.2658 292.8691 13.13468636 36428
ONEWEB-0170             
1 48067U 21025AB  21339.88311751 -.00000247  00000+0 -71059-3 0  9996
2 48067  87.8977 288.8955 0002779  62.6353 297.5059 13.13466869 36382
ONEWEB-0168             
1 48068U 21025AC  21339.86970171  .00000321  00000+0  84378-3 0  9991
2 48068  87.8960 288.8922 0001669  76.3615 283.7700 13.13469173 36391
ONEWEB-0173             
1 48069U 21025AD  21339.93914751  .00000252  00000+0  65539-3 0  9993
2 48069  87.8962 288.8845 0001545  59.5838 300.5444 13.13470556 36649
ONEWEB-0171             
1 48070U 21025AE  21339.89657258 -.00000307  00000+0 -87435-3 0  9998
2 48070  87.8892 288.8752 0001506  81.8129 278.3171 13.13468498 36458
ONEWEB-0172             
1 48071U 21025AF  21339.85216063 -.00015536  00000+0 -43134-1 0  9996
2 48071  87.8949 288.9702 0002340  53.9494 306.1851 13.12694599 37346
ONEWEB-0174             
1 48072U 21025AG  21339.93689755  .00000334  00000+0  87847-3 0  9997
2 48072  87.8905 288.8777 0001220 107.2221 252.9041 13.13471424 36672
ONEWEB-0175             
1 48073U 21025AH  21339.88761766 -.00000248  00000+0 -71500-3 0  9990
2 48073  87.8864 288.9458 0002380  66.8189 293.3190 13.13467544 36329
ONEWEB-0177             
1 48074U 21025AJ  21339.90104092 -.00000444  00000+0 -12516-2 0  9996
2 48074  87.8970 288.8852 0001179  55.5058 304.6182 13.13470726 36514
ONEWEB-0178             
1 48075U 21025AK  21339.91681134  .00000132  00000+0  32702-3 0  9997
2 48075  87.8901 288.8741 0001546  68.4856 291.6438 13.13470466 36568
ONEWEB-0108             
1 48076U 21025AL  21339.87865284 -.00000084  00000+0 -26632-3 0  9996
2 48076  87.8944 288.8914 0002026  91.9459 268.1902 13.13467875 36488
ONEWEB-0169             
1 48077U 21025AM  21339.91001699  .00000029  00000+0  43513-4 0  9999
2 48077  87.8974 288.8926 0001812  89.5243 270.6094 13.13470517 35140
ONEWEB-0176             
1 48210U 21031A   21339.83425623  .00000132  00000+0  32089-3 0  9993
2 48210  87.9061 258.4761 0001546  67.6014 292.5280 13.14505225 30976
ONEWEB-0184             
1 48211U 21031B   21339.88502900 -.00000202  00000+0 -57854-3 0  9990
2 48211  87.8962 258.5265 0002867  49.0318 311.1059 13.14500168 30955
ONEWEB-0179             
1 48212U 21031C   21339.85330581  .00000251  00000+0  64263-3 0  9996
2 48212  87.8958 258.5228 0001325  66.9113 293.2156 13.14503828 30997
ONEWEB-0180             
1 48213U 21031D   21339.88711583 -.00000191  00000+0 -54929-3 0  9998
2 48213  87.8953 258.5273 0001371  70.9306 289.1973 13.14505585 30884
ONEWEB-0218             
1 48214U 21031E   21339.83218521  .00000057  00000+0  12031-3 0  9995
2 48214  87.8940 258.5221 0002553  36.3127 323.8175 13.14508505 31037
ONEWEB-0209             
1 48215U 21031F   21339.82158994 -.00000120  00000+0 -35753-3 0  9991
2 48215  87.8969 258.5333 0001570  71.4061 288.7240 13.14500163 31032
ONEWEB-0198             
1 48216U 21031G   21339.88289324 -.00000121  00000+0 -36006-3 0  9993
2 48216  87.9054 258.4999 0001592  44.5303 315.5954 13.14504373 31151
ONEWEB-0189             
1 48217U 21031H   21339.81948257 -.00000136  00000+0 -40175-3 0  9992
2 48217  87.8964 258.5252 0001690  44.8929 315.2337 13.14501807 30880
ONEWEB-0196             
1 48218U 21031J   21339.79831853 -.00000022  00000+0 -94719-4 0  9991
2 48218  87.9033 258.5187 0001857  67.5214 292.6112 13.14498536 30883
ONEWEB-0183             
1 48219U 21031K   21339.84695309  .00000194  00000+0  48999-3 0  9998
2 48219  87.8976 258.5151 0001505  73.9329 286.1966 13.14504363 30980
ONEWEB-0185             
1 48220U 21031L   21339.80044672  .00000206  00000+0  52130-3 0  9993
2 48220  87.9000 258.5381 0000971  73.7038 286.4199 13.14500781 30900
ONEWEB-0187             
1 48221U 21031M   21339.85120067  .00000235  00000+0  59811-3 0  9997
2 48221  87.8971 258.5229 0001490  73.5062 286.6231 13.14504758 30929
ONEWEB-0192             
1 48222U 21031N   21339.82371010 -.00000329  00000+0 -92199-3 0  9993
2 48222  87.9001 258.5139 0002043  63.9054 296.2286 13.14499760 30837
ONEWEB-0219             
1 48223U 21031P   21339.88079764 -.00000275  00000+0 -77589-3 0  9997
2 48223  87.8964 258.5029 0001638  64.9888 295.1412 13.14491342 31049
ONEWEB-0202             
1 48224U 21031Q   21339.85965058  .00000117  00000+0  28145-3 0  9992
2 48224  87.8975 258.5208 0002090  32.0466 328.0791 13.14503405 31020
ONEWEB-0204             
1 48225U 21031R   21339.84485857  .00000259  00000+0  66309-3 0  9997
2 48225  87.8991 258.5064 0002137  92.8621 267.2753 13.14505126 30919
ONEWEB-0205             
1 48226U 21031S   21339.87021286 -.00000181  00000+0 -52150-3 0  9998
2 48226  87.8980 258.5072 0002822  53.8712 306.2679 13.14497230 30935
ONEWEB-0206             
1 48227U 21031T   21339.84273798  .00000243  00000+0  62179-3 0  9992
2 48227  87.8942 258.5183 0001288  77.5992 282.5282 13.14503000 30888
ONEWEB-0182             
1 48228U 21031U   21339.83639034  .00000188  00000+0  47213-3 0  9991
2 48228  87.8987 258.5255 0001380  71.4486 288.6794 13.14500157 31091
ONEWEB-0186             
1 48229U 21031V   21339.84908204  .00004950  00000+0  13314-1 0  9995
2 48229  87.8962 258.5137 0002091  68.2523 291.8829 13.14475683 31045
ONEWEB-0181             
1 48230U 21031W   21339.90193952  .00000038  00000+0  67365-4 0  9991
2 48230  87.9059 258.4387 0001773  71.0243 289.1079 13.14500666 30909
ONEWEB-0188             
1 48231U 21031X   21339.86598946 -.00000024  00000+0 -99165-4 0  9999
2 48231  87.8980 258.5264 0001452  69.8662 290.2624 13.14504398 30805
ONEWEB-0220             
1 48232U 21031Y   21339.82793463  .00000136  00000+0  33194-3 0  9998
2 48232  87.8963 258.5130 0001017  50.8211 309.3009 13.14495712 31063
ONEWEB-0165             
1 48233U 21031Z   21339.78140413 -.00002013  00000+0 -54643-2 0  9994
2 48233  87.8981 258.5440 0001891  47.8494 312.2796 13.14512148 31011
ONEWEB-0199             
1 48234U 21031AA  21339.84062902  .00000502  00000+0  13193-2 0  9992
2 48234  87.8965 258.5341 0001539  65.6897 294.4393 13.14502001 30928
ONEWEB-0203             
1 48235U 21031AB  21339.83005327  .00000125  00000+0  30267-3 0  9993
2 48235  87.9114 258.4658 0002325  66.2516 293.8857 13.14504846 30933
ONEWEB-0197             
1 48236U 21031AC  21339.89348169 -.00000167  00000+0 -48360-3 0  9995
2 48236  87.8966 258.5157 0001665  67.8923 292.2384 13.14505110 30852
ONEWEB-0194             
1 48237U 21031AD  21339.86175079 -.00000084  00000+0 -26097-3 0  9992
2 48237  87.8963 258.5260 0002300  73.8465 286.2918 13.14501113 31025
ONEWEB-0193             
1 48238U 21031AE  21339.80257379 -.00001466  00000+0 -39892-2 0  9992
2 48238  87.8963 258.5301 0001812  72.2474 287.8853 13.14495997 30961
ONEWEB-0191             
1 48239U 21031AF  21339.81313457 -.00000021  00000+0 -91027-4 0  9990
2 48239  87.8964 258.5442 0001972  69.2137 290.9204 13.14502158 30826
ONEWEB-0195             
1 48240U 21031AG  21339.86811163 -.00000172  00000+0 -49771-3 0  9999
2 48240  87.8968 258.5144 0001566  45.0961 315.0296 13.14501906 30816
